IRIDIUM 119             
1 42959U 17061E   24106.20748524 -.00000099  00000+0 -42356-4 0  9992
2 42959  86.4016 356.6420 0002299  84.2943 275.8515 14.34216926341159
IRIDIUM 107             
1 42960U 17061F   24106.22651327 -.00000419  00000+0 -15676-3 0  9990
2 42960  86.4016 356.6499 0002279  80.3303 279.8150 14.34218367341163
IRIDIUM 132             
1 42961U 17061G   24106.23285424  .00000143  00000+0  44136-4 0  9999
2 42961  86.4017 356.6331 0002380  81.4370 278.7096 14.34217135341168
IRIDIUM 136             
1 42962U 17061H   24106.19480001  .00000134  00000+0  40731-4 0  9990
2 42962  86.4016 356.6518 0002398  90.4790 269.6681 14.34218343341172
IRIDIUM 139             
1 42963U 17061J   24106.20113787  .00000421  00000+0  14330-3 0  9991
2 42963  86.4019 356.6982 0002336  78.3452 281.8006 14.34222479341186
IRIDIUM 125             
1 42964U 17061K   24106.60706859  .00000106  00000+0  30663-4 0  9992
2 42964  86.4019 356.5751 0002480  84.9460 275.2019 14.34218126341255
IRIDIUM 135             
1 43070U 17083A   24106.58121166  .00000202  00000+0  65081-4 0  9993
2 43070  86.3912 293.2612 0001727  86.6800 273.4594 14.34217116330544
IRIDIUM 138             
1 43071U 17083B   24106.60658573  .00000204  00000+0  65894-4 0  9998
2 43071  86.3903 292.9756 0002377  91.1853 268.9615 14.34218419330530
